start=new Date('2023-04-06T00:00:00.000Z').valueOf();
sats=[{"BSTAR":"0.00019064000000","CLASSIFICATION_TYPE":"U","OBJECT_ID":"2022-175R","LAUNCH_DATE":"2022-12-17","EPOCH":"2023-04-05T11:04:29.834688","ELEMENT_SET_NO":"999","OBJECT_NAME":"STARLINK-5453","GP_ID":"229540283","REF_FRAME":"TEME","RCS_SIZE":"LARGE","SEMIMAJOR_AXIS":"6917.863","TLE_LINE2":"2 54773  53.2165 163.9440 0001262  76.8574 283.2559 15.08845603 18503","COUNTRY_CODE":"US","MEAN_MOTION":"15.08845603","CENTER_NAME":"EARTH","DECAY_DATE":null,"PERIAPSIS":"538.855","ECCENTRICITY":"0.00012620","REV_AT_EPOCH":"1850","TIME_SYSTEM":"UTC","APOAPSIS":"540.601","MEAN_MOTION_DOT":"0.00002748","TLE_LINE1":"1 54773U 22175R   23095.46145642  .00002748  00000-0  19064-3 0  9998","FILE":"3880853","MEAN_MOTION_DDOT":"0.0000000000000","EPHEMERIS_TYPE":"0","RA_OF_ASC_NODE":"163.9440","OBJECT_TYPE":"PAYLOAD","SITE":"AFETR","MEAN_ANOMALY":"283.2559","NORAD_CAT_ID":"54773","MEAN_ELEMENT_THEORY":"SGP4","ARG_OF_PERICENTER":"76.8574","PERIOD":"95.437","INCLINATION":"53.2165"},{"TLE_LINE1":"1 54774U 22175S   23095.41414397 -.00001776  00000-0 -93482-4 0  9999","MEAN_MOTION_DOT":"-0.00001776","APOAPSIS":"540.833","TIME_SYSTEM":"UTC","PERIOD":"95.438","INCLINATION":"53.2184","ARG_OF_PERICENTER":"79.0379","MEAN_ELEMENT_THEORY":"SGP4","NORAD_CAT_ID":"54774","MEAN_ANOMALY":"281.0790","SITE":"AFETR","OBJECT_TYPE":"PAYLOAD","RA_OF_ASC_NODE":"149.4018","EPHEMERIS_TYPE":"0","FILE":"3880903","MEAN_MOTION_DDOT":"0.0000000000000","SEMIMAJOR_AXIS":"6917.879","REF_FRAME":"TEME","GP_ID":"229542807","RCS_SIZE":"LARGE","OBJECT_NAME":"STARLINK-5454","LAUNCH_DATE":"2022-12-17","EPOCH":"2023-04-05T09:56:22.039008","ELEMENT_SET_NO":"999","OBJECT_ID":"2022-175S","CLASSIFICATION_TYPE":"U","BSTAR":"-0.00009348200000","REV_AT_EPOCH":"1654","ECCENTRICITY":"0.00015750","PERIAPSIS":"538.654","DECAY_DATE":null,"CENTER_NAME":"EARTH","COUNTRY_CODE":"US","MEAN_MOTION":"15.08840519","TLE_LINE2":"2 54774  53.2184 149.4018 0001575  79.0379 281.0790 15.08840519 16546"},{"TIME_SYSTEM":"UTC","APOAPSIS":"540.704","MEAN_MOTION_DOT":"0.00006181","TLE_LINE1":"1 54775U 22175T   23095.65649204  .00006181  00000-0  40602-3 0  9991","FILE":"3881153","MEAN_MOTION_DDOT":"0.0000000000000","OBJECT_TYPE":"PAYLOAD","EPHEMERIS_TYPE":"0","RA_OF_ASC_NODE":"163.0284","SITE":"AFETR","ARG_OF_PERICENTER":"77.0789","PERIOD":"95.437","INCLINATION":"53.2167","MEAN_ANOMALY":"283.0360","MEAN_ELEMENT_THEORY":"SGP4","NORAD_CAT_ID":"54775","BSTAR":"0.00040602000000","OBJECT_ID":"2022-175T","CLASSIFICATION_TYPE":"U","OBJECT_NAME":"STARLINK-5465","RCS_SIZE":"LARGE","GP_ID":"229572941","REF_FRAME":"TEME","LAUNCH_DATE":"2022-12-17","ELEMENT_SET_NO":"999","EPOCH":"2023-04-05T15:45:20.912256","SEMIMAJOR_AXIS":"6917.867","MEAN_MOTION":"15.08844304","COUNTRY_CODE":"US","TLE_LINE2":"2 54775  53.2167 163.0284 0001404  77.0789 283.0360 15.08844304 18531","CENTER_NAME":"EARTH","ECCENTRICITY":"0.00014040","REV_AT_EPOCH":"1853","DECAY_DATE":null,"PERIAPSIS":"538.761"},{"TLE_LINE2":"2 54776  53.2159 162.5953 0001131 106.4844 253.6273 15.08846996 18542","COUNTRY_CODE":"US","MEAN_MOTION":"15.08846996","PERIAPSIS":"538.942","DECAY_DATE":null,"REV_AT_EPOCH":"1854","ECCENTRICITY":"0.00011310","CENTER_NAME":"EARTH","CLASSIFICATION_TYPE":"U","OBJECT_ID":"2022-175U","BSTAR":"0.00045129000000","SEMIMAJOR_AXIS":"6917.859","ELEMENT_SET_NO":"999","LAUNCH_DATE":"2022-12-17","EPOCH":"2023-04-05T16:48:53.808192","REF_FRAME":"TEME","GP_ID":"229572691","RCS_SIZE":"LARGE","OBJECT_NAME":"STARLINK-5470","RA_OF_ASC_NODE":"162.5953","EPHEMERIS_TYPE":"0","OBJECT_TYPE":"PAYLOAD","MEAN_MOTION_DDOT":"0.0000000000000","FILE":"3881153","NORAD_CAT_ID":"54776","MEAN_ELEMENT_THEORY":"SGP4","MEAN_ANOMALY":"253.6273","INCLINATION":"53.2159","PERIOD":"95.437","ARG_OF_PERICENTER":"106.4844","SITE":"AFETR","MEAN_MOTION_DOT":"0.00006903","APOAPSIS":"540.506","TIME_SYSTEM":"UTC","TLE_LINE1":"1 54776U 22175U   23095.70062278  .00006903  00000-0  45129-3 0  9999"},{"OBJECT_TYPE":"PAYLOAD","RA_OF_ASC_NODE":"163.0047","EPHEMERIS_TYPE":"0","MEAN_MOTION_DDOT":"0.0000000000000","FILE":"3881153","PERIOD":"95.437","INCLINATION":"53.2165","ARG_OF_PERICENTER":"80.2530","NORAD_CAT_ID":"54777","MEAN_ELEMENT_THEORY":"SGP4","MEAN_ANOMALY":"279.8628","SITE":"AFETR","MEAN_MOTION_DOT":"0.00007336","APOAPSIS":"540.736","TIME_SYSTEM":"UTC","TLE_LINE1":"1 54777U 22175V   23095.65280945  .00007336  00000-0  47840-3 0  9990","MEAN_MOTION":"15.08850400","COUNTRY_CODE":"US","TLE_LINE2":"2 54777  53.2165 163.0047 0001478  80.2530 279.8628 15.08850400 18533","REV_AT_EPOCH":"1853","ECCENTRICITY":"0.00014780","PERIAPSIS":"538.691","DECAY_DATE":null,"CENTER_NAME":"EARTH","OBJECT_ID":"2022-175V","CLASSIFICATION_TYPE":"U","BSTAR":"0.00047840000000","SEMIMAJOR_AXIS":"6917.849","GP_ID":"229573943","REF_FRAME":"TEME","RCS_SIZE":"LARGE","OBJECT_NAME":"STARLINK-5468","LAUNCH_DATE":"2022-12-17","ELEMENT_SET_NO":"999","EPOCH":"2023-04-05T15:40:02.736480"},{"SITE":"AFETR","MEAN_ELEMENT_THEORY":"SGP4","NORAD_CAT_ID":"54778","MEAN_ANOMALY":"271.7010","INCLINATION":"53.2156","PERIOD":"95.438","ARG_OF_PERICENTER":"88.4137","FILE":"3881153","MEAN_MOTION_DDOT":"0.0000000000000","RA_OF_ASC_NODE":"147.2856","EPHEMERIS_TYPE":"0","OBJECT_TYPE":"PAYLOAD","TLE_LINE1":"1 54778U 22175W   23095.87318328 -.00000822  00000-0 -33577-4 0  9990","TIME_SYSTEM":"UTC","MEAN_MOTION_DOT":"-0.00000822","APOAPSIS":"540.686","CENTER_NAME":"EARTH","PERIAPSIS":"538.816","DECAY_DATE":null,"REV_AT_EPOCH":"1877","ECCENTRICITY":"0.00013510","TLE_LINE2":"2 54778  53.2156 147.2856 0001351  88.4137 271.7010 15.08838144 18772","MEAN_MOTION":"15.08838144","COUNTRY_CODE":"US","EPOCH":"2023-04-05T20:57:23.035392","LAUNCH_DATE":"2022-12-17","ELEMENT_SET_NO":"999","GP_ID":"229573676","REF_FRAME":"TEME","RCS_SIZE":"LARGE","OBJECT_NAME":"STARLINK-5450","SEMIMAJOR_AXIS":"6917.886","BSTAR":"-0.00003357700000","CLASSIFICATION_TYPE":"U","OBJECT_ID":"2022-175W"},{"TLE_LINE2":"2 54779  53.2154 147.3133 0001724  56.4351 303.6806 15.08834200 18774","COUNTRY_CODE":"US","MEAN_MOTION":"15.08834200","PERIAPSIS":"538.570","DECAY_DATE":null,"REV_AT_EPOCH":"1877","ECCENTRICITY":"0.00017240","CENTER_NAME":"EARTH","CLASSIFICATION_TYPE":"U","OBJECT_ID":"2022-175X","BSTAR":"-0.00000763770000","SEMIMAJOR_AXIS":"6917.898","LAUNCH_DATE":"2022-12-17","EPOCH":"2023-04-05T21:02:42.037152","ELEMENT_SET_NO":"999","GP_ID":"229572441","RCS_SIZE":"LARGE","REF_FRAME":"TEME","OBJECT_NAME":"STARLINK-5447","RA_OF_ASC_NODE":"147.3133","EPHEMERIS_TYPE":"0","OBJECT_TYPE":"PAYLOAD","MEAN_MOTION_DDOT":"0.0000000000000","FILE":"3881153","MEAN_ELEMENT_THEORY":"SGP4","NORAD_CAT_ID":"54779","MEAN_ANOMALY":"303.6806","INCLINATION":"53.2154","PERIOD":"95.438","ARG_OF_PERICENTER":"56.4351","SITE":"AFETR","MEAN_MOTION_DOT":"-0.00000410","APOAPSIS":"540.956","TIME_SYSTEM":"UTC","TLE_LINE1":"1 54779U 22175X   23095.87687543 -.00000410  00000-0 -76377-5 0  9998"},{"BSTAR":"-0.00000321570000","CLASSIFICATION_TYPE":"U","OBJECT_ID":"2022-175Y","LAUNCH_DATE":"2022-12-17","ELEMENT_SET_NO":"999","EPOCH":"2023-04-05T20:24:18.278784","REF_FRAME":"TEME","GP_ID":"229573192","RCS_SIZE":"LARGE","OBJECT_NAME":"STARLINK-5449","SEMIMAJOR_AXIS":"6922.890","TLE_LINE2":"2 54780  53.2172 147.1396 0001495  85.2550 274.8612 15.07202580 18774","COUNTRY_CODE":"US","MEAN_MOTION":"15.07202580","CENTER_NAME":"EARTH","PERIAPSIS":"543.720","DECAY_DATE":null,"REV_AT_EPOCH":"1877","ECCENTRICITY":"0.00014950","TIME_SYSTEM":"UTC","MEAN_MOTION_DOT":"-0.00000332","APOAPSIS":"545.790","TLE_LINE1":"1 54780U 22175Y   23095.85021156 -.00000332  00000-0 -32157-5 0  9991","MEAN_MOTION_DDOT":"0.0000000000000","FILE":"3881153","RA_OF_ASC_NODE":"147.1396","EPHEMERIS_TYPE":"0","OBJECT_TYPE":"PAYLOAD","SITE":"AFETR","NORAD_CAT_ID":"54780","MEAN_ELEMENT_THEORY":"SGP4","MEAN_ANOMALY":"274.8612","PERIOD":"95.541","INCLINATION":"53.2172","ARG_OF_PERICENTER":"85.2550"},{"TLE_LINE2":"2 54781  53.2166 147.8679 0001430  89.6453 270.4702 15.07210506 18744","MEAN_MOTION":"15.07210506","COUNTRY_CODE":"US","DECAY_DATE":null,"PERIAPSIS":"543.741","ECCENTRICITY":"0.00014300","REV_AT_EPOCH":"1874","CENTER_NAME":"EARTH","CLASSIFICATION_TYPE":"U","OBJECT_ID":"2022-175Z","BSTAR":"0.00025507000000","SEMIMAJOR_AXIS":"6922.866","LAUNCH_DATE":"2022-12-17","ELEMENT_SET_NO":"999","EPOCH":"2023-04-05T14:59:19.871520","OBJECT_NAME":"STARLINK-5443","RCS_SIZE":"LARGE","GP_ID":"229573443","REF_FRAME":"TEME","EPHEMERIS_TYPE":"0","RA_OF_ASC_NODE":"147.8679","OBJECT_TYPE":"PAYLOAD","MEAN_MOTION_DDOT":"0.0000000000000","FILE":"3881153","MEAN_ANOMALY":"270.4702","NORAD_CAT_ID":"54781","MEAN_ELEMENT_THEORY":"SGP4","ARG_OF_PERICENTER":"89.6453","PERIOD":"95.541","INCLINATION":"53.2166","SITE":"AFETR","APOAPSIS":"545.721","MEAN_MOTION_DOT":"0.00003602","TIME_SYSTEM":"UTC","TLE_LINE1":"1 54781U 22175Z   23095.62453555  .00003602  00000-0  25507-3 0  9999"},{"CENTER_NAME":"EARTH","ECCENTRICITY":"0.00011910","REV_AT_EPOCH":"130","DECAY_DATE":null,"PERIAPSIS":"373.500","MEAN_MOTION":"15.64630178","COUNTRY_CODE":"US","TLE_LINE2":"2 54782  53.2114 126.0637 0001191  98.6935 276.7252 15.64630178  1307","OBJECT_NAME":"STARLINK-5437","REF_FRAME":"TEME","GP_ID":"229574177","RCS_SIZE":"LARGE","LAUNCH_DATE":"2022-12-17","EPOCH":"2023-04-05T22:00:00.999936","ELEMENT_SET_NO":"999","SEMIMAJOR_AXIS":"6752.440","BSTAR":"-0.00614210000000","OBJECT_ID":"2022-175AA","CLASSIFICATION_TYPE":"U","SITE":"AFETR","ARG_OF_PERICENTER":"98.6935","INCLINATION":"53.2114","PERIOD":"92.035","MEAN_ANOMALY":"276.7252","NORAD_CAT_ID":"54782","MEAN_ELEMENT_THEORY":"SGP4","MEAN_MOTION_DDOT":"0.0000000000000","FILE":"3881153","OBJECT_TYPE":"PAYLOAD","EPHEMERIS_TYPE":"0","RA_OF_ASC_NODE":"126.0637","TLE_LINE1":"1 54782U 22175AA  23095.91667824 -.00565840  00000-0 -61421-2 0  9991","TIME_SYSTEM":"UTC","APOAPSIS":"375.109","MEAN_MOTION_DOT":"-0.00565840"}];
